{"fetched_at":"2026-07-15T17:46:46.517Z","source":"https://celestrak.org/NORAD/elements/gp.php?GROUP=oneweb&FORMAT=JSON","constellation":"oneweb","records":[{"OBJECT_NAME":"ONEWEB-0697","OBJECT_ID":"2024-188K","EPOCH":"2026-07-14T23:55:15.960000","CLASSIFICATION_TYPE":"U","MEAN_MOTION":13.11418264,"ECCENTRICITY":0.0002563,"INCLINATION":87.8884,"RA_OF_ASC_NODE":15.5287,"ARG_OF_PERICENTER":97.9754,"MEAN_ANOMALY":262.1665,"EPHEMERIS_TYPE":0,"NORAD_CAT_ID":61603,"ELEMENT_SET_NO":999,"REV_AT_EPOCH":8809,"BSTAR":-0.001179,"MEAN_MOTION_DOT":-0.00000405,"MEAN_MOTION_DDOT":0},{"OBJECT_NAME":"ONEWEB-0698","OBJECT_ID":"2024-188L","EPOCH":"2026-07-15T01:13:24.099168","CLASSIFICATION_TYPE":"U","MEAN_MOTION":13.1141482,"ECCENTRICITY":0.0002466,"INCLINATION":87.888,"RA_OF_ASC_NODE":15.5313,"ARG_OF_PERICENTER":117.3093,"MEAN_ANOMALY":242.8286,"EPHEMERIS_TYPE":0,"NORAD_CAT_ID":61604,"ELEMENT_SET_NO":999,"REV_AT_EPOCH":8812,"BSTAR":-0.00062918,"MEAN_MOTION_DOT":-0.0000021,"MEAN_MOTION_DDOT":0},{"OBJECT_NAME":"ONEWEB-0699","OBJECT_ID":"2024-188M","EPOCH":"2026-07-15T02:03:28.210752","CLASSIFICATION_TYPE":"U","MEAN_MOTION":13.10370078,"ECCENTRICITY":0.0002416,"INCLINATION":87.8813,"RA_OF_ASC_NODE":30.7058,"ARG_OF_PERICENTER":98.5046,"MEAN_ANOMALY":261.6355,"EPHEMERIS_TYPE":0,"NORAD_CAT_ID":61605,"ELEMENT_SET_NO":999,"REV_AT_EPOCH":8696,"BSTAR":0.00049814,"MEAN_MOTION_DOT":0.00000187,"MEAN_MOTION_DDOT":0},{"OBJECT_NAME":"ONEWEB-0700","OBJECT_ID":"2024-188N","EPOCH":"2026-07-15T02:05:53.461248","CLASSIFICATION_TYPE":"U","MEAN_MOTION":13.10368435,"ECCENTRICITY":0.0002452,"INCLINATION":87.883,"RA_OF_ASC_NODE":30.6188,"ARG_OF_PERICENTER":96.6794,"MEAN_ANOMALY":263.4612,"EPHEMERIS_TYPE":0,"NORAD_CAT_ID":61606,"ELEMENT_SET_NO":999,"REV_AT_EPOCH":8695,"BSTAR":0.00021611,"MEAN_MOTION_DOT":8.8e-7,"MEAN_MOTION_DDOT":0},{"OBJECT_NAME":"ONEWEB-0701","OBJECT_ID":"2024-188P","EPOCH":"2026-07-15T02:30:19.745280","CLASSIFICATION_TYPE":"U","MEAN_MOTION":13.10371659,"ECCENTRICITY":0.000253,"INCLINATION":87.8818,"RA_OF_ASC_NODE":30.7028,"ARG_OF_PERICENTER":99.6134,"MEAN_ANOMALY":260.5279,"EPHEMERIS_TYPE":0,"NORAD_CAT_ID":61607,"ELEMENT_SET_NO":999,"REV_AT_EPOCH":8696,"BSTAR":-0.0017092,"MEAN_MOTION_DOT":-0.00000584,"MEAN_MOTION_DDOT":0},{"OBJECT_NAME":"ONEWEB-0702","OBJECT_ID":"2024-188Q","EPOCH":"2026-07-15T00:29:28.239072","CLASSIFICATION_TYPE":"U","MEAN_MOTION":13.11417555,"ECCENTRICITY":0.0002862,"INCLINATION":87.8902,"RA_OF_ASC_NODE":15.4482,"ARG_OF_PERICENTER":94.1045,"MEAN_ANOMALY":266.041,"EPHEMERIS_TYPE":0,"NORAD_CAT_ID":61608,"ELEMENT_SET_NO":999,"REV_AT_EPOCH":8813,"BSTAR":0.0013043,"MEAN_MOTION_DOT":0.00000475,"MEAN_MOTION_DDOT":0},{"OBJECT_NAME":"ONEWEB-0704","OBJECT_ID":"2024-188R","EPOCH":"2026-07-15T02:13:13.373760","CLASSIFICATION_TYPE":"U","MEAN_MOTION":13.10369048,"ECCENTRICITY":0.0002858,"INCLINATION":87.8819,"RA_OF_ASC_NODE":30.6946,"ARG_OF_PERICENTER":90.1081,"MEAN_ANOMALY":270.0374,"EPHEMERIS_TYPE":0,"NORAD_CAT_ID":61609,"ELEMENT_SET_NO":999,"REV_AT_EPOCH":8694,"BSTAR":-0.00058535,"MEAN_MOTION_DOT":-0.00000192,"MEAN_MOTION_DDOT":0},{"OBJECT_NAME":"ONEWEB-0705","OBJECT_ID":"2024-188S","EPOCH":"2026-07-15T02:20:33.604224","CLASSIFICATION_TYPE":"U","MEAN_MOTION":13.10370008,"ECCENTRICITY":0.0002681,"INCLINATION":87.8821,"RA_OF_ASC_NODE":30.7,"ARG_OF_PERICENTER":73.5478,"MEAN_ANOMALY":286.5944,"EPHEMERIS_TYPE":0,"NORAD_CAT_ID":61610,"ELEMENT_SET_NO":999,"REV_AT_EPOCH":7911,"BSTAR":-0.0012798,"MEAN_MOTION_DOT":-0.00000434,"MEAN_MOTION_DDOT":0},{"OBJECT_NAME":"ONEWEB-0706","OBJECT_ID":"2024-188T","EPOCH":"2026-07-15T01:58:35.013216","CLASSIFICATION_TYPE":"U","MEAN_MOTION":13.1037034,"ECCENTRICITY":0.0002416,"INCLINATION":87.8814,"RA_OF_ASC_NODE":30.7063,"ARG_OF_PERICENTER":86.0429,"MEAN_ANOMALY":274.0975,"EPHEMERIS_TYPE":0,"NORAD_CAT_ID":61611,"ELEMENT_SET_NO":999,"REV_AT_EPOCH":8703,"BSTAR":0.0011634,"MEAN_MOTION_DOT":0.00000419,"MEAN_MOTION_DDOT":0},{"OBJECT_NAME":"ONEWEB-0707","OBJECT_ID":"2024-188U","EPOCH":"2026-07-15T02:08:19.862592","CLASSIFICATION_TYPE":"U","MEAN_MOTION":13.10368217,"ECCENTRICITY":0.0002421,"INCLINATION":87.882,"RA_OF_ASC_NODE":30.7002,"ARG_OF_PERICENTER":87.7532,"MEAN_ANOMALY":272.3873,"EPHEMERIS_TYPE":0,"NORAD_CAT_ID":61612,"ELEMENT_SET_NO":999,"REV_AT_EPOCH":8697,"BSTAR":-0.000030438,"MEAN_MOTION_DOT":2e-8,"MEAN_MOTION_DDOT":0},{"OBJECT_NAME":"ONEWEB-0708","OBJECT_ID":"2024-188V","EPOCH":"2026-07-15T02:35:11.901696","CLASSIFICATION_TYPE":"U","MEAN_MOTION":13.10371474,"ECCENTRICITY":0.000203,"INCLINATION":87.8815,"RA_OF_ASC_NODE":30.713,"ARG_OF_PERICENTER":72.5822,"MEAN_ANOMALY":287.5527,"EPHEMERIS_TYPE":0,"NORAD_CAT_ID":61613,"ELEMENT_SET_NO":999,"REV_AT_EPOCH":8695,"BSTAR":-0.0018194,"MEAN_MOTION_DOT":-0.00000622,"MEAN_MOTION_DDOT":0}]}
