ONEWEB-0697             
1 61603U 24188K   26195.99671250 -.00000405  00000+0 -11790-2 0  9991
2 61603  87.8884  15.5287 0002563  97.9754 262.1665 13.11418264 88090
ONEWEB-0698             
1 61604U 24188L   26196.05097337 -.00000210  00000+0 -62918-3 0  9991
2 61604  87.8880  15.5313 0002466 117.3093 242.8286 13.11414820 88124
ONEWEB-0699             
1 61605U 24188M   26196.08574318  .00000187  00000+0  49814-3 0  9995
2 61605  87.8813  30.7058 0002416  98.5046 261.6355 13.10370078 86960
ONEWEB-0700             
1 61606U 24188N   26196.08742432  .00000088  00000+0  21611-3 0  9995
2 61606  87.8830  30.6188 0002452  96.6794 263.4612 13.10368435 86951
ONEWEB-0701             
1 61607U 24188P   26196.10439520 -.00000584  00000+0 -17092-2 0  9990
2 61607  87.8818  30.7028 0002530  99.6134 260.5279 13.10371659 86960
ONEWEB-0702             
1 61608U 24188Q   26196.02046573  .00000475  00000+0  13043-2 0  9993
2 61608  87.8902  15.4482 0002862  94.1045 266.0410 13.11417555 88134
ONEWEB-0704             
1 61609U 24188R   26196.09251590 -.00000192  00000+0 -58535-3 0  9992
2 61609  87.8819  30.6946 0002858  90.1081 270.0374 13.10369048 86940
ONEWEB-0705             
1 61610U 24188S   26196.09761116 -.00000434  00000+0 -12798-2 0  9993
2 61610  87.8821  30.7000 0002681  73.5478 286.5944 13.10370008 79110
ONEWEB-0706             
1 61611U 24188T   26196.08234969  .00000419  00000+0  11634-2 0  9993
2 61611  87.8814  30.7063 0002416  86.0429 274.0975 13.10370340 87038
ONEWEB-0707             
1 61612U 24188U   26196.08911878  .00000002  00000+0 -30438-4 0  9999
2 61612  87.8820  30.7002 0002421  87.7532 272.3873 13.10368217 86978
ONEWEB-0708             
1 61613U 24188V   26196.10777664 -.00000622  00000+0 -18194-2 0  9998
2 61613  87.8815  30.7130 0002030  72.5822 287.5527 13.10371474 86956
